TDRS 3                  
1 19548U 88091B   23221.24622458 -.00000308  00000+0  00000+0 0  9996
2 19548  13.4030 348.1520 0033174 333.0679  35.7042  1.00264712114912
HST                     
1 20580U 90037B   23220.63182493  .00004785  00000+0  24872-3 0  9998
2 20580  28.4691 278.9410 0002286 216.2168 276.5440 15.13699709629670
TDRS 5                  
1 21639U 91054B   23220.67229255  .00000075  00000+0  00000+0 0  9997
2 21639  14.1993   1.4387 0023928   0.4035  29.8037  1.00278708117246
TDRS 6                  
1 22314U 93003B   23221.24683473 -.00000306  00000+0  00000+0 0  9992
2 22314  14.1519   4.7120 0012879 146.9063 208.6743  1.00265812111924
TDRS 7                  
1 23613U 95035B   23220.41288376 -.00000213  00000+0  00000+0 0  9990
2 23613  13.8121 355.4598 0027974  69.3603 125.4155  1.00272237102682
ISS (ZARYA)             
1 25544U 98067A   23221.44875692  .00012915  00000+0  23332-3 0  9998
2 25544  51.6421  64.6364 0000267  58.7226  11.6071 15.50068019410056
LANDSAT 7               
1 25682U 99020A   23221.38260713  .00000578  00000+0  12908-3 0  9995
2 25682  97.9262 257.4108 0001204 100.9456 314.4457 14.60181833293545
TERRA                   
1 25994U 99068A   23221.40268726  .00000626  00000+0  14202-3 0  9991
2 25994  98.0914 288.4665 0000600 227.7535 192.1463 14.59264118257548
TDRS 8                  
1 26388U 00034A   23220.85483524 -.00000110  00000+0  00000+0 0  9993
2 26388  11.0263  39.6032 0002520  42.3975 327.9185  1.01074207 84711
TIMED                   
1 26998U 01055B   23221.09373823  .00001901  00000+0  20129-3 0  9997
2 26998  74.0717 166.9157 0002714 273.7827  86.3044 14.89924120175319
TDRS 9                  
1 27389U 02011A   23220.62439505  .00000052  00000+0  00000+0 0  9991
2 27389   9.9214  56.6902 0007199  82.4061 109.9382  0.98979201 79947
AQUA                    
1 27424U 02022A   23221.40736802  .00001210  00000+0  27217-3 0  9990
2 27424  98.2887 165.6480 0001810  58.6099  93.7696 14.58226109131115
TDRS 10                 
1 27566U 02055A   23221.25802285  .00000076  00000+0  00000+0 0  9991
2 27566   8.9711  47.4786 0006327   4.3612 187.3791  1.00269579 75764
SORCE                   
1 27651U 03004A   23220.91964860  .00003960  00000+0  39289-3 0  9991
2 27651  39.9950  42.8959 0019461 178.8917 181.1919 14.92335786115417
AURA                    
1 28376U 04026A   23221.38361004  .00001177  00000+0  26819-3 0  9997
2 28376  98.2116 164.3396 0001452  64.8216 295.3133 14.57633234 14139
SWIFT                   
1 28485U 04047A   23220.40164613  .00008795  00000+0  47460-3 0  9998
2 28485  20.5554 253.6459 0009484 202.0077 157.9951 15.11632782 26671
THEMIS A                
1 30580U 07004A   23219.36635998 -.00000177  00000+0  50884-1 0  9994
2 30580  11.1766 295.6514 8324315 257.4967  93.7213  0.87833708 56783
THEMIS D                
1 30797U 07004D   23221.42267198 -.00000228  00000+0  00000+0 0  9997
2 30797   7.6283 283.7856 8283049 272.9108  10.6244  0.87834055 56329
THEMIS E                
1 30798U 07004E   23220.23651285 -.00000175  00000+0  00000+0 0  9991
2 30798   8.7519 303.1238 8286328 255.1692  13.5589  0.87831714 56737
AIM                     
1 31304U 07015A   23221.39677282  .00023051  00000+0  74521-3 0  9990
2 31304  97.8703 165.3811 0003840  42.9614 317.1925 15.32087078894823
FGRST (GLAST)           
1 33053U 08029A   23221.02110790  .00003278  00000+0  15764-3 0  9998
2 33053  25.5809 195.7864 0011265 347.9001  12.1264 15.14350569837232
WISE                    
1 36119U 09071A   23220.34609275  .00019874  00000+0  44080-3 0  9999
2 36119  97.1918 252.5804 0001486 162.1036 198.0265 15.43767950759583
TDRS 11                 
1 39070U 13004A   23221.09771654  .00000074  00000+0  00000+0 0  9995
2 39070   2.6982 359.9935 0006540  73.0268 105.1769  1.00266979 38529
TDRS 12                 
1 39504U 14004A   23221.39123598 -.00000272  00000+0  00000+0 0  9990
2 39504   3.5978 355.8445 0006099 168.7932 252.9962  1.00272695 34991
GPM-CORE                
1 39574U 14009C   23221.09566117  .00018040  00000+0  25472-3 0  9992
2 39574  64.9915 206.2250 0013583 272.1896  87.7695 15.56575794536602
MMS 1                   
1 40482U 15011A   23219.42105257 -.00002288  00000+0  00000+0 0  9998
2 40482  30.4676  52.7440 9182614 107.6182 300.5843  0.28594482 14486
MMS 2                   
1 40483U 15011B   23220.00000000 -.00002397  00000+0  00000+0 0  9996
2 40483  30.4731  52.7030 9184465 107.6558   0.1776  0.28593002 14460
MMS 3                   
1 40484U 15011C   23220.00000000 -.00002397  00000+0  00000+0 0  9997
2 40484  30.4722  52.6778 9183694 107.6698   0.1612  0.28587085 14460
MMS 4                   
1 40485U 15011D   23220.00000000 -.00002397  00000+0  00000+0 0  9998
2 40485  30.4708  52.6988 9184781 107.6729   0.1452  0.28593412 14464
TDRS 13                 
1 42915U 17047A   23221.25372076 -.00000102  00000+0  00000+0 0  9994
2 42915   3.9412 338.7030 0018173 124.3477 294.3108  1.00271763 21922
JPSS-1                  
1 43013U 17073A   23221.40901468  .00000100  00000+0  68041-4 0  9994
2 43013  98.7128 159.0383 0001004  61.8906 298.2371 14.19552571296528
